OSCAR 7 (AO-7)          
1 07530U 74089B   26161.28179581 -.00000033  00000+0  84573-4 0  9997
2 07530 101.9901 174.4563 0012501 142.9960 284.8697 12.53697951359658
PHASE 3B (AO-10)        
1 14129U 83058B   26158.17238870 -.00000194  00000+0  00000+0 0  9992
2 14129  25.9048 221.2242 6014266 112.9115 319.2048  2.05872980295281
UOSAT 2 (UO-11)         
1 14781U 84021B   26161.17371193  .00001160  00000+0  12370-3 0  9997
2 14781  97.8055 126.8269 0006980 196.0557 164.0441 14.90765931256083
LUSAT (LO-19)           
1 20442U 90005G   26161.27485573  .00000098  00000+0  51817-4 0  9995
2 20442  98.8852 182.8898 0010763 222.5115 137.5236 14.34121054901409
EYESAT A (AO-27)        
1 22825U 93061C   26161.42702727  .00000074  00000+0  45162-4 0  9997
2 22825  98.6881 228.8428 0009436 117.2772 242.9373 14.30940455706035
ITAMSAT (IO-26)         
1 22826U 93061D   26161.40845590  .00000073  00000+0  44368-4 0  9998
2 22826  98.6829 228.7410 0010048 102.5360 257.6948 14.31367133706341
RADIO ROSTO (RS15)      
1 23439U 94085A   26161.46429964 -.00000040  00000+0  72413-4 0  9992
2 23439  64.8187 314.0890 0155740   5.1201 355.1274 11.27583632295149
JAS-2 (FO-29)           
1 24278U 96046B   26161.50910954  .00000005  00000+0  37731-4 0  9996
2 24278  98.5246  11.2961 0350807 113.7155 250.1200 13.53273838472269
TECHSAT 1B (GO-32)      
1 25397U 98043D   26160.96984413  .00000058  00000+0  45251-4 0  9992
2 25397  99.0065 153.5465 0000643 181.5466 178.5710 14.24427022450309
ISS (ZARYA)             
1 25544U 98067A   26161.41633914  .00005345  00000+0  10452-3 0  9998
2 25544  51.6361 333.6061 0005881 172.3680 187.7399 15.49162374570700
PCSAT (NO-44)           
1 26931U 01043C   26161.52399818  .00000066  00000+0  55446-4 0  9999
2 26931  67.0510 261.5055 0006105 264.3013  95.7393 14.31953728289498
SAUDISAT 1C (SO-50)     
1 27607U 02058C   26161.41203397  .00000888  00000+0  12206-3 0  9999
2 27607  64.5505 149.9474 0075400 263.7335  95.5179 14.83031935263455
CUTE-1 (CO-55)          
1 27844U 03031E   26161.29335645  .00000255  00000+0  12935-3 0  9999
2 27844  98.6735 169.9388 0009062 198.4654 161.6197 14.24331486190695
CUBESAT XI-IV (CO-57)   
1 27848U 03031J   26161.27835743  .00000213  00000+0  11264-3 0  9993
2 27848  98.6767 169.6423 0008624 218.4782 141.5782 14.23617138190393
MOZHAETS 4 (RS22)       
1 27939U 03042A   26161.56288037  .00000848  00000+0  13893-3 0  9990
2 27939  98.3475 345.7349 0010094 293.3130 158.3459 14.73455766214570
CUBESAT XI-V            
1 28895U 05043F   26161.33614102  .00001246  00000+0  20389-3 0  9997
2 28895  98.2977 316.8144 0013219 223.4430 136.5736 14.72613094100747
CUTE-1.7+APD II (CO-65) 
1 32785U 08021C   26161.48699863  .00004949  00000+0  31356-3 0  9991
2 32785  97.8272 142.7662 0010330  58.6595 301.5643 15.09389877984184
SEEDS II (CO-66)        
1 32791U 08021J   26161.47612767  .00016320  00000+0  52179-3 0  9997
2 32791  97.7516 159.0539 0002042  26.6798 333.4547 15.32520473986269
YUBILEINY (RS30)        
1 32953U 08025A   26161.49926260  .00000083  00000+0  52995-3 0  9994
2 32953  82.5050 359.6014 0019138 328.9651  31.0296 12.43179176818861
KKS-1 (KISEKI)          
1 33499U 09002H   26161.50994661  .00001178  00000+0  15146-3 0  9991
2 33499  98.1192  83.8464 0006916 321.1426  38.9289 14.83106801935204
SWISSCUBE               
1 35932U 09051B   26160.71112973  .00000922  00000+0  19187-3 0  9994
2 35932  98.4042  68.4691 0005562 230.1201 129.9511 14.62467613888060
BEESAT-1                
1 35933U 09051C   26160.99049480  .00000728  00000+0  15600-3 0  9997
2 35933  98.3972  68.4038 0003926 245.5037 114.5754 14.61708937888139
ITUPSAT1                
1 35935U 09051E   26160.97508610  .00000673  00000+0  14898-3 0  9999
2 35935  98.4056  67.5878 0006124 261.1078  98.9428 14.60430038887684
XIWANG-1 (HOPE-1)       
1 36122U 09072B   26161.47996134 -.00000269  00000+0 -58708-3 0  9990
2 36122 100.4021 115.4191 0006809 248.7236 111.3150 13.16437601792126
O/OREOS (USA 219)       
1 37224U 10062C   26161.23124619  .00002123  00000+0  20614-3 0  9994
2 37224  71.9705  96.0947 0012410  78.2875 281.9687 14.93714689115605
JUGNU                   
1 37839U 11058B   26161.25711561  .00000399  00000+0  69141-4 0  9994
2 37839  19.9621 350.5295 0018562 359.9630 156.5973 14.13774890758040
SRMSAT                  
1 37841U 11058D   26161.52450462  .00000356  00000+0  49378-4 0  9990
2 37841  19.9713  99.7947 0011923 130.6142  29.5560 14.11574150756872
STRAND-1                
1 39090U 13009E   26161.23306514  .00000258  00000+0  10110-3 0  9994
2 39090  98.3921 341.6387 0007466 249.0407 110.9981 14.37159178696068
ZACUBE-1 (TSHEPISOSAT)  
1 39417U 13066B   26161.14175542  .00003283  00000+0  25692-3 0  9997
2 39417  97.8088 123.4403 0040113 272.4357  87.2274 15.01145439679670
GOMX-1                  
1 39430U 13066Q   26161.51275196  .00001517  00000+0  23248-3 0  9992
2 39430  97.6495   2.3968 0130160  98.7213 262.8761 14.69434061668932
